[
    {
        "Altitude(m)": 604983.0529122666,
        "Argument of Periapsis(deg)": 0.0,
        "Eccentricity": 0.0,
        "Inclination(deg)": 60.0,
        "Latitude(deg)": -0.09260037539774373,
        "Longitude(deg)": 165.08391622359812,
        "Mean Anomaly(deg)": 180.0,
        "RAAN(deg)": 85.00000000000001,
        "Satellite Name": "Test1 385",
        "Satellite Number": 385,
        "Semi-Major Axis(m)": 6980739.136638005,
        "Time(s)": 0
    },
    {
        "Altitude(m)": 605055.3320445569,
        "Argument of Periapsis(deg)": 0.00010418945913296404,
        "Eccentricity": 0.0,
        "Inclination(deg)": 60.0,
        "Latitude(deg)": -0.6330107699043647,
        "Longitude(deg)": 165.352040097657,
        "Mean Anomaly(deg)": 180.62010614546185,
        "RAAN(deg)": 84.99957995086027,
        "Satellite Name": "Test1 385",
        "Satellite Number": 385,
        "Semi-Major Axis(m)": 6980739.136638005,
        "Time(s)": 10
    }
]